{"type": "FeatureCollection", "features": [ {"type": "Feature", "properties": {"norad_id": 32260, "name": "GPS BIIRM-4 (PRN 15)", "group": "gnss", "lat": -52.530730590278225, "lon": -20.621415152324843, "alt_km": 20620.68669014128, "timestamp": "2025-12-12T14:39:18.184608+00:00", "meta": {"OBJECT_NAME": "GPS BIIRM-4 (PRN 15)", "OBJECT_ID": "2007-047A", "EPOCH": "2025-12-11T06:11:12.991200", "MEAN_MOTION": 2.00564547, "ECCENTRICITY": 0.0164204, "INCLINATION": 53.9543, "RA_OF_ASC_NODE": 87.8198, "ARG_OF_PERICENTER": 85.2289, "MEAN_ANOMALY": 276.6392, "EPHEMERIS_TYPE": 0, "CLASSIFICATION_TYPE": "U", "NORAD_CAT_ID": 32260, "ELEMENT_SET_NO": 999, "REV_AT_EPOCH": 13304, "BSTAR": 0, "MEAN_MOTION_DOT": -2.3e-07, "MEAN_MOTION_DDOT": 0}, "tle": {"line1": "1 32260U 07047A   25345.25778925 -.00000023  00000+0  00000+0 0  9999", "line2": "2 32260  53.9543  87.8198 0164204  85.2289 276.6392  2.00564547133045"}}, "geometry": {"type": "Point", "coordinates": [-20.621415152324843, -52.530730590278225]}}, {"type": "Feature", "properties": {"norad_id": 32275, "name": "COSMOS 2433 (720)", "group": "gnss", "lat": -6.640903390095506, "lon": -40.816240711608536, "alt_km": 19133.649103613032, "timestamp": "2025-12-12T14:39:18.184619+00:00", "meta": {"OBJECT_NAME": "COSMOS 2433 (720)", "OBJECT_ID": "2007-052A", "EPOCH": "2025-12-10T06:34:19.673184", "MEAN_MOTION": 2.13103813, "ECCENTRICITY": 0.00055546, "INCLINATION": 65.6847, "RA_OF_ASC_NODE": 322.2886, "ARG_OF_PERICENTER": 252.6006, "MEAN_ANOMALY": 107.3381, "EPHEMERIS_TYPE": 0, "CLASSIFICATION_TYPE": "U", "NORAD_CAT_ID": 32275, "ELEMENT_SET_NO": 999, "REV_AT_EPOCH": 14103, "BSTAR": 0, "MEAN_MOTION_DOT": -5e-07, "MEAN_MOTION_DDOT": 0}, "tle": {"line1": "1 32275U 07052A   25344.27383881 -.00000050  00000+0  00000+0 0  9995", "line2": "2 32275  65.6847 322.2886 0005554 252.6006 107.3381  2.13103813141032"}}, "geometry": {"type": "Point", "coordinates": [-40.816240711608536, -6.640903390095506]}}, {"type": "Feature", "properties": {"norad_id": 32276, "name": "COSMOS 2432 (719)", "group": "gnss", "lat": -54.2227153553697, "lon": -76.49678711908379, "alt_km": 19108.052258156808, "timestamp": "2025-12-12T14:39:18.184631+00:00", "meta": {"OBJECT_NAME": "COSMOS 2432 (719)", "OBJECT_ID": "2007-052B", "EPOCH": "2025-12-10T13:56:19.351392", "MEAN_MOTION": 2.13102999, "ECCENTRICITY": 0.0011254, "INCLINATION": 65.7001, "RA_OF_ASC_NODE": 322.4023, "ARG_OF_PERICENTER": 311.5771, "MEAN_ANOMALY": 228.309, "EPHEMERIS_TYPE": 0, "CLASSIFICATION_TYPE": "U", "NORAD_CAT_ID": 32276, "ELEMENT_SET_NO": 999, "REV_AT_EPOCH": 14106, "BSTAR": 0, "MEAN_MOTION_DOT": -5e-07, "MEAN_MOTION_DDOT": 0}, "tle": {"line1": "1 32276U 07052B   25344.58077953 -.00000050  00000+0  00000+0 0  9990", "line2": "2 32276  65.7001 322.4023 0011254 311.5771 228.3090  2.13102999141067"}}, "geometry": {"type": "Point", "coordinates": [-76.49678711908379, -54.2227153553697]}}, {"type": "Feature", "properties": {"norad_id": 32384, "name": "GPS BIIRM-5 (PRN 29)", "group": "gnss", "lat": 22.39127328463139, "lon": -61.72242010263932, "alt_km": 20238.579571220238, "timestamp": "2025-12-12T14:39:18.184643+00:00", "meta": {"OBJECT_NAME": "GPS BIIRM-5 (PRN 29)", "OBJECT_ID": "2007-062A", "EPOCH": "2025-12-11T19:20:30.701760", "MEAN_MOTION": 2.00577226, "ECCENTRICITY": 0.00322349, "INCLINATION": 55.183, "RA_OF_ASC_NODE": 281.6834, "ARG_OF_PERICENTER": 162.4856, "MEAN_ANOMALY": 4.3365, "EPHEMERIS_TYPE": 0, "CLASSIFICATION_TYPE": "U", "NORAD_CAT_ID": 32384, "ELEMENT_SET_NO": 999, "REV_AT_EPOCH": 13175, "BSTAR": 0, "MEAN_MOTION_DOT": -7.4e-07, "MEAN_MOTION_DDOT": 0}, "tle": {"line1": "1 32384U 07062A   25345.80591090 -.00000074  00000+0  00000+0 0  9996", "line2": "2 32384  55.1830 281.6834 0032234 162.4856   4.3365  2.00577226131751"}}, "geometry": {"type": "Point", "coordinates": [-61.72242010263932, 22.39127328463139]}}, {"type": "Feature", "properties": {"norad_id": 32393, "name": "COSMOS 2434 (721)", "group": "gnss", "lat": -53.584766892380216, "lon": 58.930392502677975, "alt_km": 19146.841130421617, "timestamp": "2025-12-12T14:39:18.184654+00:00", "meta": {"OBJECT_NAME": "COSMOS 2434 (721)", "OBJECT_ID": "2007-065A", "EPOCH": "2025-12-10T15:35:17.035872", "MEAN_MOTION": 2.13101152, "ECCENTRICITY": 0.0004304, "INCLINATION": 64.3147, "RA_OF_ASC_NODE": 198.2738, "ARG_OF_PERICENTER": 71.148, "MEAN_ANOMALY": 107.63, "EPHEMERIS_TYPE": 0, "CLASSIFICATION_TYPE": "U", "NORAD_CAT_ID": 32393, "ELEMENT_SET_NO": 999, "REV_AT_EPOCH": 13975, "BSTAR": 0, "MEAN_MOTION_DOT": 4.8e-07, "MEAN_MOTION_DDOT": 0}, "tle": {"line1": "1 32393U 07065A   25344.64950273  .00000048  00000+0  00000+0 0  9992", "line2": "2 32393  64.3147 198.2738 0004304  71.1480 107.6300  2.13101152139755"}}, "geometry": {"type": "Point", "coordinates": [58.930392502677975, -53.584766892380216]}}, {"type": "Feature", "properties": {"norad_id": 32395, "name": "COSMOS 2436 (723)", "group": "gnss", "lat": 14.66429211545113, "lon": -154.4876448372454, "alt_km": 19083.67732520751, "timestamp": "2025-12-12T14:39:18.184665+00:00", "meta": {"OBJECT_NAME": "COSMOS 2436 (723)", "OBJECT_ID": "2007-065C", "EPOCH": "2025-12-08T02:01:11.627904", "MEAN_MOTION": 2.13100022, "ECCENTRICITY": 0.00177472, "INCLINATION": 64.3236, "RA_OF_ASC_NODE": 198.4308, "ARG_OF_PERICENTER": 9.2257, "MEAN_ANOMALY": 134.6131, "EPHEMERIS_TYPE": 0, "CLASSIFICATION_TYPE": "U", "NORAD_CAT_ID": 32395, "ELEMENT_SET_NO": 999, "REV_AT_EPOCH": 13965, "BSTAR": 0, "MEAN_MOTION_DOT": 5.1e-07, "MEAN_MOTION_DDOT": 0}, "tle": {"line1": "1 32395U 07065C   25342.08416236  .00000051  00000+0  00000+0 0  9990", "line2": "2 32395  64.3236 198.4308 0017747   9.2257 134.6131  2.13100022139656"}}, "geometry": {"type": "Point", "coordinates": [-154.4876448372454, 14.66429211545113]}}, {"type": "Feature", "properties": {"norad_id": 32711, "name": "GPS BIIRM-6 (PRN 07)", "group": "gnss", "lat": -35.520648821133754, "lon": 126.70351963391224, "alt_km": 19988.339132037683, "timestamp": "2025-12-12T14:39:18.184678+00:00", "meta": {"OBJECT_NAME": "GPS BIIRM-6 (PRN 07)", "OBJECT_ID": "2008-012A", "EPOCH": "2025-12-11T16:14:23.545824", "MEAN_MOTION": 2.00565584, "ECCENTRICITY": 0.0202401, "INCLINATION": 54.477, "RA_OF_ASC_NODE": 157.4153, "ARG_OF_PERICENTER": 244.9354, "MEAN_ANOMALY": 112.9612, "EPHEMERIS_TYPE": 0, "CLASSIFICATION_TYPE": "U", "NORAD_CAT_ID": 32711, "ELEMENT_SET_NO": 999, "REV_AT_EPOCH": 12999, "BSTAR": 0, "MEAN_MOTION_DOT": 8.9e-07, "MEAN_MOTION_DDOT": 0}, "tle": {"line1": "1 32711U 08012A   25345.67666141  .00000089  00000+0  00000+0 0  9996", "line2": "2 32711  54.4770 157.4153 0202401 244.9354 112.9612  2.00565584129996"}}, "geometry": {"type": "Point", "coordinates": [126.70351963391224, -35.520648821133754]}}, {"type": "Feature", "properties": {"norad_id": 35752, "name": "GPS BIIRM-8 (PRN 05)", "group": "gnss", "lat": -23.20146124110929, "lon": 18.059429257657257, "alt_km": 20232.053396503878, "timestamp": "2025-12-12T14:39:18.184690+00:00", "meta": {"OBJECT_NAME": "GPS BIIRM-8 (PRN 05)", "OBJECT_ID": "2009-043A", "EPOCH": "2025-12-11T15:37:32.913696", "MEAN_MOTION": 2.00565741, "ECCENTRICITY": 0.00518358, "INCLINATION": 56.0903, "RA_OF_ASC_NODE": 34.8259, "ARG_OF_PERICENTER": 81.9315, "MEAN_ANOMALY": 277.4877, "EPHEMERIS_TYPE": 0, "CLASSIFICATION_TYPE": "U", "NORAD_CAT_ID": 35752, "ELEMENT_SET_NO": 999, "REV_AT_EPOCH": 11959, "BSTAR": 0, "MEAN_MOTION_DOT": -9.6e-07, "MEAN_MOTION_DDOT": 0}, "tle": {"line1": "1 35752U 09043A   25345.65107539 -.00000096  00000+0  00000+0 0  9997", "line2": "2 35752  56.0903  34.8259 0051835  81.9315 277.4877  2.00565741119594"}}, "geometry": {"type": "Point", "coordinates": [18.059429257657257, -23.20146124110929]}}, {"type": "Feature", "properties": {"norad_id": 36111, "name": "COSMOS 2456 (730)", "group": "gnss", "lat": 35.926471715173875, "lon": 97.17238453631977, "alt_km": 19127.13558523549, "timestamp": "2025-12-12T14:39:18.184702+00:00", "meta": {"OBJECT_NAME": "COSMOS 2456 (730)", "OBJECT_ID": "2009-070A", "EPOCH": "2025-12-09T05:47:54.858624", "MEAN_MOTION": 2.13103359, "ECCENTRICITY": 0.00028383, "INCLINATION": 64.8981, "RA_OF_ASC_NODE": 77.4578, "ARG_OF_PERICENTER": 298.5783, "MEAN_ANOMALY": 37.1692, "EPHEMERIS_TYPE": 0, "CLASSIFICATION_TYPE": "U", "NORAD_CAT_ID": 36111, "ELEMENT_SET_NO": 999, "REV_AT_EPOCH": 12437, "BSTAR": 0, "MEAN_MOTION_DOT": -1.7e-07, "MEAN_MOTION_DDOT": 0}, "tle": {"line1": "1 36111U 09070A   25343.24160716 -.00000017  00000+0  00000+0 0  9999", "line2": "2 36111  64.8981  77.4578 0002838 298.5783  37.1692  2.13103359124373"}}, "geometry": {"type": "Point", "coordinates": [97.17238453631977, 35.926471715173875]}}, {"type": "Feature", "properties": {"norad_id": 36112, "name": "COSMOS 2457 (733)", "group": "gnss", "lat": 9.446976836355276, "lon": -107.27463311747009, "alt_km": 19117.33903737687, "timestamp": "2025-12-12T14:39:18.184725+00:00", "meta": {"OBJECT_NAME": "COSMOS 2457 (733)", "OBJECT_ID": "2009-070B", "EPOCH": "2025-12-09T23:48:31.817088", "MEAN_MOTION": 2.13100761, "ECCENTRICITY": 0.00048188, "INCLINATION": 64.8839, "RA_OF_ASC_NODE": 77.2797, "ARG_OF_PERICENTER": 156.0783, "MEAN_ANOMALY": 164.5444, "EPHEMERIS_TYPE": 0, "CLASSIFICATION_TYPE": "U", "NORAD_CAT_ID": 36112, "ELEMENT_SET_NO": 999, "REV_AT_EPOCH": 12439, "BSTAR": 0, "MEAN_MOTION_DOT": -2.2e-07, "MEAN_MOTION_DDOT": 0}, "tle": {"line1": "1 36112U 09070B   25343.99203492 -.00000022  00000+0  00000+0 0  9997", "line2": "2 36112  64.8839  77.2797 0004818 156.0783 164.5444  2.13100761124391"}}, "geometry": {"type": "Point", "coordinates": [-107.27463311747009, 9.446976836355276]}}]}